ENVISAT                 
1 27386U 02009A   25324.85379557  .00000149  00000+0  61996-4 0  9990
2 27386  98.3565 276.1531 0001238  81.5277 289.6654 14.38987629243526
IDEFIX & ARIANE 42P R/B 
1 27422U 02021B   25324.55711188  .00000345  00000+0  14790-3 0  9999
2 27422  98.5753 259.5398 0012310 144.2208 215.9802 14.30927078228410
AQUA                    
1 27424U 02022A   25324.92804694  .00001143  00000+0  23924-3 0  9994
2 27424  98.4005 285.4576 0000597  71.6734  20.6184 14.61733838252849
CZ-4B R/B               
1 27432U 02024C   25324.66663279  .00000067  00000+0  57665-4 0  9992
2 27432  98.9032  13.5119 0049646 333.6736 186.7396 14.14521349213821
MIDORI II (ADEOS-II)    
1 27597U 02056A   25324.59249963  .00000326  00000+0  14609-3 0  9999
2 27597  98.7602 277.4367 0000975  23.8637 336.2590 14.29184103194713
H-2A R/B                
1 27601U 02056E   25324.83055453  .00000286  00000+0  11473-3 0  9992
2 27601  98.3031 284.4639 0071231 125.4135 268.3223 14.33652461198518
CZ-4B R/B               
1 28059U 03049C   25324.45041112  .00000429  00000+0  11022-3 0  9997
2 28059  98.6770 310.1743 0047727 203.8638 156.0345 14.54880156170711
CZ-2C R/B               
1 28222U 04012C   25324.40204946  .00033521  00000+0  52384-3 0  9996
2 28222  97.7460  15.2116 0018290 356.4155   3.6963 15.53534730187252
SL-16 R/B               
1 28353U 04021B   25324.62965945  .00000276  00000+0  16851-3 0  9998
2 28353  70.9998 101.3614 0006291 223.3480 136.7148 14.14578901107414
CZ-4B R/B               
1 28415U 04035C   25324.54491769  .00008005  00000+0  30103-3 0  9995
2 28415  97.3632 355.1907 0033611 358.6696   1.4448 15.26878821163244
CZ-2C R/B               
1 28480U 04046B   25324.73072717  .00000184  00000+0  82858-4 0  9993
2 28480  98.1968 241.4791 0140589 116.8588 244.7046 14.26926509 92964
ARIANE 5 R/B            
1 28499U 04049H   25324.41661486  .00000939  00000+0  11072-3 0  9995
2 28499  98.2519 123.9001 0084377 346.0546  13.8338 14.84943386129571
